GLOBALSTAR M001 [-]     
1 25162U 98008A   23321.14934840 -.00000003  00000+0  71683-3 0  9996
2 25162  52.0027 215.5909 0002465  94.7112  70.9069 12.38173125172213
GLOBALSTAR M002 [-]     
1 25164U 98008C   23320.16819719 -.00000062  00000+0  28428-3 0  9990
2 25164  52.0013 251.9806 0001262 126.5006 233.5931 11.61497148116784
GLOBALSTAR M003 [-]     
1 25165U 98008D   23320.45897948  .00000025  00000+0  12215-2 0  9997
2 25165  51.9789 331.4657 0007840 206.7680 301.2468 12.11953273163049
GLOBALSTAR M014 [-]     
1 25306U 98023A   23321.09592015 -.00000066  00000+0  21473-3 0  9992
2 25306  51.9817 185.0313 0001721  52.3760 116.7450 11.65462023123756
GLOBALSTAR M015 [-]     
1 25308U 98023C   23320.30815479 -.00000038  00000+0  80365-3 0  9993
2 25308  51.9825 289.8081 0012368 123.6339  24.9096 11.48858063127546
